{"type": "FeatureCollection", "features": [ {"type": "Feature", "properties": {"norad_id": 57401, "name": "TIANMU-1 09", "group": "weather", "lat": 79.23076119166853, "lon": 7.766307083251264, "alt_km": 470.2854500331987, "timestamp": "2025-12-27T03:58:43.824800+00:00", "meta": {"OBJECT_NAME": "TIANMU-1 09", "OBJECT_ID": "2023-101C", "EPOCH": "2025-12-26T21:20:09.650112", "MEAN_MOTION": 15.28292387, "ECCENTRICITY": 0.0006094, "INCLINATION": 97.2803, "RA_OF_ASC_NODE": 49.7281, "ARG_OF_PERICENTER": 44.6748, "MEAN_ANOMALY": 315.4982, "EPHEMERIS_TYPE": 0, "CLASSIFICATION_TYPE": "U", "NORAD_CAT_ID": 57401, "ELEMENT_SET_NO": 999, "REV_AT_EPOCH": 13531, "BSTAR": 0.00031665, "MEAN_MOTION_DOT": 8.66e-05, "MEAN_MOTION_DDOT": 0}, "tle": {"line1": "1 57401U 23101C   25360.88900058  .00008660  00000+0  31665-3 0  9991", "line2": "2 57401  97.2803  49.7281 0006094  44.6748 315.4982 15.28292387135313"}}, "geometry": {"type": "Point", "coordinates": [7.766307083251264, 79.23076119166853]}}, {"type": "Feature", "properties": {"norad_id": 57402, "name": "TIANMU-1 10", "group": "weather", "lat": -72.00683166580582, "lon": -152.3435128205576, "alt_km": 492.76196780531336, "timestamp": "2025-12-27T03:58:43.824809+00:00", "meta": {"OBJECT_NAME": "TIANMU-1 10", "OBJECT_ID": "2023-101D", "EPOCH": "2025-12-26T20:35:14.781408", "MEAN_MOTION": 15.28283283, "ECCENTRICITY": 0.000781, "INCLINATION": 97.2883, "RA_OF_ASC_NODE": 50.5624, "ARG_OF_PERICENTER": 41.8736, "MEAN_ANOMALY": 318.31, "EPHEMERIS_TYPE": 0, "CLASSIFICATION_TYPE": "U", "NORAD_CAT_ID": 57402, "ELEMENT_SET_NO": 999, "REV_AT_EPOCH": 13530, "BSTAR": 0.00028556, "MEAN_MOTION_DOT": 7.802e-05, "MEAN_MOTION_DDOT": 0}, "tle": {"line1": "1 57402U 23101D   25360.85780997  .00007802  00000+0  28556-3 0  9999", "line2": "2 57402  97.2883  50.5624 0007810  41.8736 318.3100 15.28283283135304"}}, "geometry": {"type": "Point", "coordinates": [-152.3435128205576, -72.00683166580582]}}, {"type": "Feature", "properties": {"norad_id": 57490, "name": "FENGYUN 3F", "group": "weather", "lat": -59.665168458284555, "lon": 84.40585358875452, "alt_km": 833.4256224722058, "timestamp": "2025-12-27T03:58:43.824818+00:00", "meta": {"OBJECT_NAME": "FENGYUN 3F", "OBJECT_ID": "2023-111A", "EPOCH": "2025-12-26T19:48:31.750272", "MEAN_MOTION": 14.1989724, "ECCENTRICITY": 8.68e-05, "INCLINATION": 98.7065, "RA_OF_ASC_NODE": 68.8903, "ARG_OF_PERICENTER": 117.8725, "MEAN_ANOMALY": 242.254, "EPHEMERIS_TYPE": 0, "CLASSIFICATION_TYPE": "U", "NORAD_CAT_ID": 57490, "ELEMENT_SET_NO": 999, "REV_AT_EPOCH": 12440, "BSTAR": 5.5478e-05, "MEAN_MOTION_DOT": 7.4e-07, "MEAN_MOTION_DDOT": 0}, "tle": {"line1": "1 57490U 23111A   25360.82536748  .00000074  00000+0  55478-4 0  9995", "line2": "2 57490  98.7065  68.8903 0000868 117.8725 242.2540 14.19897240124404"}}, "geometry": {"type": "Point", "coordinates": [84.40585358875452, -59.665168458284555]}}, {"type": "Feature", "properties": {"norad_id": 58584, "name": "ARKTIKA-M 2", "group": "weather", "lat": 47.160132289395406, "lon": -39.688430992025246, "alt_km": 24855.634733747753, "timestamp": "2025-12-27T03:58:43.824830+00:00", "meta": {"OBJECT_NAME": "ARKTIKA-M 2", "OBJECT_ID": "2023-198A", "EPOCH": "2025-12-25T18:56:09.299328", "MEAN_MOTION": 2.00602256, "ECCENTRICITY": 0.686608, "INCLINATION": 63.2255, "RA_OF_ASC_NODE": 173.4714, "ARG_OF_PERICENTER": 268.0516, "MEAN_ANOMALY": 18.8422, "EPHEMERIS_TYPE": 0, "CLASSIFICATION_TYPE": "U", "NORAD_CAT_ID": 58584, "ELEMENT_SET_NO": 999, "REV_AT_EPOCH": 1484, "BSTAR": 0, "MEAN_MOTION_DOT": 2.31e-06, "MEAN_MOTION_DDOT": 0}, "tle": {"line1": "1 58584U 23198A   25359.78899652  .00000231  00000+0  00000+0 0  9995", "line2": "2 58584  63.2255 173.4714 6866080 268.0516  18.8422  2.00602256 14849"}}, "geometry": {"type": "Point", "coordinates": [-39.688430992025246, 47.160132289395406]}}, {"type": "Feature", "properties": {"norad_id": 58645, "name": "TIANMU-1 11", "group": "weather", "lat": -70.1958384112762, "lon": 179.50003197057555, "alt_km": 493.5568714735, "timestamp": "2025-12-27T03:58:43.824841+00:00", "meta": {"OBJECT_NAME": "TIANMU-1 11", "OBJECT_ID": "2023-205A", "EPOCH": "2025-12-26T20:34:42.804768", "MEAN_MOTION": 15.24770616, "ECCENTRICITY": 0.0007594, "INCLINATION": 97.3601, "RA_OF_ASC_NODE": 20.2328, "ARG_OF_PERICENTER": 249.752, "MEAN_ANOMALY": 110.2902, "EPHEMERIS_TYPE": 0, "CLASSIFICATION_TYPE": "U", "NORAD_CAT_ID": 58645, "ELEMENT_SET_NO": 999, "REV_AT_EPOCH": 11124, "BSTAR": 0.00027787, "MEAN_MOTION_DOT": 6.821e-05, "MEAN_MOTION_DDOT": 0}, "tle": {"line1": "1 58645U 23205A   25360.85743987  .00006821  00000+0  27787-3 0  9997", "line2": "2 58645  97.3601  20.2328 0007594 249.7520 110.2902 15.24770616111240"}}, "geometry": {"type": "Point", "coordinates": [179.50003197057555, -70.1958384112762]}}, {"type": "Feature", "properties": {"norad_id": 58646, "name": "TIANMU-1 12", "group": "weather", "lat": 79.3408342829184, "lon": -116.29810934005098, "alt_km": 487.0850145580862, "timestamp": "2025-12-27T03:58:43.824850+00:00", "meta": {"OBJECT_NAME": "TIANMU-1 12", "OBJECT_ID": "2023-205B", "EPOCH": "2025-12-26T19:40:32.581920", "MEAN_MOTION": 15.24656886, "ECCENTRICITY": 0.0006104, "INCLINATION": 97.3588, "RA_OF_ASC_NODE": 19.9967, "ARG_OF_PERICENTER": 227.7655, "MEAN_ANOMALY": 132.3065, "EPHEMERIS_TYPE": 0, "CLASSIFICATION_TYPE": "U", "NORAD_CAT_ID": 58646, "ELEMENT_SET_NO": 999, "REV_AT_EPOCH": 11122, "BSTAR": 0.00028641, "MEAN_MOTION_DOT": 7.007e-05, "MEAN_MOTION_DDOT": 0}, "tle": {"line1": "1 58646U 23205B   25360.81982155  .00007007  00000+0  28641-3 0  9993", "line2": "2 58646  97.3588  19.9967 0006104 227.7655 132.3065 15.24656886111225"}}, "geometry": {"type": "Point", "coordinates": [-116.29810934005098, 79.3408342829184]}}, {"type": "Feature", "properties": {"norad_id": 58647, "name": "TIANMU-1 13", "group": "weather", "lat": -80.46947989062225, "lon": 70.90334746725175, "alt_km": 497.50922282999545, "timestamp": "2025-12-27T03:58:43.824860+00:00", "meta": {"OBJECT_NAME": "TIANMU-1 13", "OBJECT_ID": "2023-205C", "EPOCH": "2025-12-26T20:28:16.663296", "MEAN_MOTION": 15.2470155, "ECCENTRICITY": 0.0006827, "INCLINATION": 97.3616, "RA_OF_ASC_NODE": 20.2362, "ARG_OF_PERICENTER": 206.1234, "MEAN_ANOMALY": 153.966, "EPHEMERIS_TYPE": 0, "CLASSIFICATION_TYPE": "U", "NORAD_CAT_ID": 58647, "ELEMENT_SET_NO": 999, "REV_AT_EPOCH": 11122, "BSTAR": 0.00028324, "MEAN_MOTION_DOT": 6.939e-05, "MEAN_MOTION_DDOT": 0}, "tle": {"line1": "1 58647U 23205C   25360.85297064  .00006939  00000+0  28324-3 0  9997", "line2": "2 58647  97.3616  20.2362 0006827 206.1234 153.9660 15.24701550111227"}}, "geometry": {"type": "Point", "coordinates": [70.90334746725175, -80.46947989062225]}}, {"type": "Feature", "properties": {"norad_id": 58648, "name": "TIANMU-1 14", "group": "weather", "lat": 6.03530173316564, "lon": 19.09661216220456, "alt_km": 498.6610850783554, "timestamp": "2025-12-27T03:58:43.824869+00:00", "meta": {"OBJECT_NAME": "TIANMU-1 14", "OBJECT_ID": "2023-205D", "EPOCH": "2025-12-26T20:04:35.933664", "MEAN_MOTION": 15.24683547, "ECCENTRICITY": 0.0007487, "INCLINATION": 97.3549, "RA_OF_ASC_NODE": 19.5558, "ARG_OF_PERICENTER": 212.3607, "MEAN_ANOMALY": 147.7172, "EPHEMERIS_TYPE": 0, "CLASSIFICATION_TYPE": "U", "NORAD_CAT_ID": 58648, "ELEMENT_SET_NO": 999, "REV_AT_EPOCH": 11122, "BSTAR": 0.00027029, "MEAN_MOTION_DOT": 6.616e-05, "MEAN_MOTION_DDOT": 0}, "tle": {"line1": "1 58648U 23205D   25360.83652701  .00006616  00000+0  27029-3 0  9992", "line2": "2 58648  97.3549  19.5558 0007487 212.3607 147.7172 15.24683547111221"}}, "geometry": {"type": "Point", "coordinates": [19.09661216220456, 6.03530173316564]}}, {"type": "Feature", "properties": {"norad_id": 58660, "name": "TIANMU-1 19", "group": "weather", "lat": 74.62484489852345, "lon": 83.80857209141865, "alt_km": 475.847255650845, "timestamp": "2025-12-27T03:58:43.824878+00:00", "meta": {"OBJECT_NAME": "TIANMU-1 19", "OBJECT_ID": "2023-208A", "EPOCH": "2025-12-26T19:47:13.611840", "MEAN_MOTION": 15.28109108, "ECCENTRICITY": 0.0004913, "INCLINATION": 97.4384, "RA_OF_ASC_NODE": 111.8356, "ARG_OF_PERICENTER": 194.0933, "MEAN_ANOMALY": 166.017, "EPHEMERIS_TYPE": 0, "CLASSIFICATION_TYPE": "U", "NORAD_CAT_ID": 58660, "ELEMENT_SET_NO": 999, "REV_AT_EPOCH": 11097, "BSTAR": 0.0003735, "MEAN_MOTION_DOT": 0.00010168, "MEAN_MOTION_DDOT": 0}, "tle": {"line1": "1 58660U 23208A   25360.82446310  .00010168  00000+0  37350-3 0  9990", "line2": "2 58660  97.4384 111.8356 0004913 194.0933 166.0170 15.28109108110977"}}, "geometry": {"type": "Point", "coordinates": [83.80857209141865, 74.62484489852345]}}, {"type": "Feature", "properties": {"norad_id": 58661, "name": "TIANMU-1 20", "group": "weather", "lat": -32.35016854215026, "lon": -72.10468870982957, "alt_km": 479.3373187305169, "timestamp": "2025-12-27T03:58:43.824887+00:00", "meta": {"OBJECT_NAME": "TIANMU-1 20", "OBJECT_ID": "2023-208B", "EPOCH": "2025-12-26T20:46:14.471328", "MEAN_MOTION": 15.29300404, "ECCENTRICITY": 0.0006934, "INCLINATION": 97.4322, "RA_OF_ASC_NODE": 112.3381, "ARG_OF_PERICENTER": 208.1482, "MEAN_ANOMALY": 151.9384, "EPHEMERIS_TYPE": 0, "CLASSIFICATION_TYPE": "U", "NORAD_CAT_ID": 58661, "ELEMENT_SET_NO": 999, "REV_AT_EPOCH": 11105, "BSTAR": 0.00037935, "MEAN_MOTION_DOT": 0.00010717, "MEAN_MOTION_DDOT": 0}, "tle": {"line1": "1 58661U 23208B   25360.86544527  .00010717  00000+0  37935-3 0  9993", "line2": "2 58661  97.4322 112.3381 0006934 208.1482 151.9384 15.29300404111058"}}, "geometry": {"type": "Point", "coordinates": [-72.10468870982957, -32.35016854215026]}}]}